NORAD_CAT_ID,OBJECT_NAME,OBJECT_TYPE,EPOCH,MEAN_MOTION,ECCENTRICITY,INCLINATION,RA_OF_ASC_NODE,ARG_OF_PERICENTER,MEAN_ANOMALY,BSTAR,MEAN_MOTION_DOT,MEAN_MOTION_DDOT,TLE_LINE0,TLE_LINE1,TLE_LINE2,SEMIMAJOR_AXIS,PERIOD,APOGEE,PERIGEE,DECAYED
52100.0,STARLINK-3702,PAYLOAD,2022-09-13 22:00:00,15.08838879,0.0001363,53.2179,42.8207,66.4463,245.7616,-0.00093966,-0.00015211,0.0,0 STARLINK-3702,1 52100U 22029N   22256.91667824 -.00015211  00000-0 -93966-3 0  9991,2 52100  53.2179  42.8207 0001363  66.4463 245.7616 15.08838879  1304,6917.884,95.438,540.692,538.806,0.0
52100.0,STARLINK-3702,PAYLOAD,2022-09-14 14:00:01,15.08840035,0.0001585999999999,53.2182,39.8275,74.6089,260.7579,-0.00099742,-0.00016127,0.0,0 STARLINK-3702,1 52100U 22029N   22257.58334491 -.00016127  00000-0 -99742-3 0  9991,2 52100  53.2182  39.8275 0001586  74.6089 260.7579 15.08840035  1303,6917.88,95.438,540.842,538.648,0.0
52100.0,STARLINK-3702,PAYLOAD,2022-09-14 22:00:00,15.0883214,0.0001565999999999,53.218,38.3318,67.2159,279.7372,0.0015894,0.00025092,0.0,0 STARLINK-3702,1 52100U 22029N   22257.91667824  .00025092  00000-0  15894-2 0  9991,2 52100  53.2180  38.3318 0001566  67.2159 279.7372 15.08832140 28653,6917.904,95.438,540.8530000000002,538.686,0.0
52100.0,STARLINK-3702,PAYLOAD,2022-09-15 14:00:01,15.08847883,0.0001493,53.2184,35.3388,69.7695,300.3862,-0.00083401,-0.0001354,0.0,0 STARLINK-3702,1 52100U 22029N   22258.58334491 -.00013540  00000-0 -83401-3 0  9993,2 52100  53.2184  35.3388 0001493  69.7695 300.3862 15.08847883  1300,6917.856,95.437,540.754,538.688,0.0
52100.0,STARLINK-3702,PAYLOAD,2022-09-15 18:43:30,15.08844148,0.0001478,53.219,34.4539,72.063,288.0523,0.00021072,3.068e-05,0.0,0 STARLINK-3702,1 52100U 22029N   22258.78021679  .00003068  00000-0  21072-3 0  9994,2 52100  53.2190  34.4539 0001478  72.0630 288.0523 15.08844148 28793,6917.868,95.437,540.755,538.71,0.0
52100.0,STARLINK-3702,PAYLOAD,2022-09-15 20:18:53,15.08849058,0.0001425,53.219,34.1566,73.4479,286.6670000000001,0.000305,4.571e-05,0.0,0 STARLINK-3702,1 52100U 22029N   22258.84645489  .00004571  00000-0  30500-3 0  9998,2 52100  53.2190  34.1566 0001425  73.4479 286.6670 15.08849058 28802,6917.853,95.437,540.703,538.732,0.0
52100.0,STARLINK-3702,PAYLOAD,2022-09-16 12:12:44,15.08851082,0.0001738,53.219,31.1827,94.9735,265.1455,0.00031277,4.695e-05,0.0,0 STARLINK-3702,1 52100U 22029N   22259.50885298  .00004695  00000-0  31277-3 0  9995,2 52100  53.2190  31.1827 0001738  94.9735 265.1455 15.08851082 28903,6917.847,95.437,540.914,538.509,0.0
52100.0,STARLINK-3702,PAYLOAD,2022-09-16 15:23:31,15.0884494,0.0001416,53.2193,30.5886,71.7547,288.3599,0.00019775,2.861e-05,0.0,0 STARLINK-3702,1 52100U 22029N   22259.64133542  .00002861  00000-0  19775-3 0  9990,2 52100  53.2193  30.5886 0001416  71.7547 288.3599 15.08844940 28924,6917.865,95.437,540.71,538.751,0.0
52100.0,STARLINK-3702,PAYLOAD,2022-09-16 18:34:17,15.08838742,0.0001264999999999,53.2181,29.994,60.5196,299.5922,1.3539000000000002e-07,-2.86e-06,0.0,0 STARLINK-3702,1 52100U 22029N   22259.77381664 -.00000286  00000-0  13539-6 0  9999,2 52100  53.2181  29.9940 0001265  60.5196 299.5922 15.08838742 28941,6917.884,95.438,540.624,538.874,0.0
52100.0,STARLINK-3702,PAYLOAD,2022-09-16 20:09:41,15.08832932,0.0001478,53.2194,29.6964,69.3736,290.7414,-0.00012151,-2.221e-05,0.0,0 STARLINK-3702,1 52100U 22029N   22259.84005946 -.00002221  00000-0 -12151-3 0  9991,2 52100  53.2194  29.6964 0001478  69.3736 290.7414 15.08832932 28956,6917.901999999999,95.438,540.789,538.745,0.0
52100.0,STARLINK-3702,PAYLOAD,2022-09-17 12:03:32,15.08836196,0.000153,53.219,26.7236,69.905,290.2106,8.8308e-05,1.118e-05,0.0,0 STARLINK-3702,1 52100U 22029N   22260.50246094  .00001118  00000-0  88308-4 0  9997,2 52100  53.2190  26.7236 0001530  69.9050 290.2106 15.08836196 29057,6917.892,95.438,540.815,538.6990000000002,0.0
52100.0,STARLINK-3702,PAYLOAD,2022-09-17 20:00:28,15.0883486,0.0001485,53.2193,25.2364,67.3365,292.7784,0.00043574,6.653e-05,0.0,0 STARLINK-3702,1 52100U 22029N   22260.83366456  .00006653  00000-0  43574-3 0  9992,2 52100  53.2193  25.2364 0001485  67.3365 292.7784 15.08834860 29107,6917.896,95.438,540.788,538.734,0.0
52100.0,STARLINK-3702,PAYLOAD,2022-09-18 11:54:20,15.08838853,0.000154,53.2193,22.2629,68.7663,291.3494,0.00043492,6.64e-05,0.0,0 STARLINK-3702,1 52100U 22029N   22261.49606758  .00006640  00000-0  43492-3 0  9992,2 52100  53.2193  22.2629 0001540  68.7663 291.3494 15.08838853 29206,6917.884,95.438,540.814,538.684,0.0
52100.0,STARLINK-3702,PAYLOAD,2022-09-18 19:51:15,15.08848541,0.0001479,53.2192,20.7764,65.8888,294.2259,0.00056404,8.702e-05,0.0,0 STARLINK-3702,1 52100U 22029N   22261.82726536  .00008702  00000-0  56404-3 0  9994,2 52100  53.2192  20.7764 0001479  65.8888 294.2259 15.08848541 29257,6917.854,95.437,540.742,538.696,0.0
52100.0,STARLINK-3702,PAYLOAD,2022-09-19 11:45:06,15.08848225,0.0001408,53.2193,17.8029,69.4589,290.6554,0.00033695,5.08e-05,0.0,0 STARLINK-3702,1 52100U 22029N   22262.48966374  .00005080  00000-0  33695-3 0  9996,2 52100  53.2193  17.8029 0001408  69.4589 290.6554 15.08848225 29357,6917.855,95.437,540.694,538.746,0.0
52100.0,STARLINK-3702,PAYLOAD,2022-09-19 18:06:39,15.08851529,0.0001524,53.2194,16.6143,65.0144,295.1006,0.00030448,4.563e-05,0.0,0 STARLINK-3702,1 52100U 22029N   22262.75462210  .00004563  00000-0  30448-3 0  9994,2 52100  53.2194  16.6143 0001524  65.0144 295.1006 15.08851529 29397,6917.845,95.437,540.764,538.656,0.0
52100.0,STARLINK-3702,PAYLOAD,2022-09-19 21:17:25,15.08844359,0.0001701,53.2192,16.0187,65.6574,294.4596,0.00012907,1.767e-05,0.0,0 STARLINK-3702,1 52100U 22029N   22262.88710428  .00001767  00000-0  12907-3 0  9998,2 52100  53.2192  16.0187 0001701  65.6574 294.4596 15.08844359 29419,6917.8669999999975,95.437,540.909,538.555,0.0
52100.0,STARLINK-3702,PAYLOAD,2022-09-20 19:32:50,15.088317000000002,0.0001827,53.2195,11.8558,60.7751,299.3424,-6.0174e-05,-1.245e-05,0.0,0 STARLINK-3702,1 52100U 22029N   22263.81447177 -.00001245  00000-0 -60174-4 0  9993,2 52100  53.2195  11.8558 0001827  60.7751 299.3424 15.08831700 29554,6917.906,95.438,541.035,538.507,0.0
52100.0,STARLINK-3702,PAYLOAD,2022-09-21 16:12:51,15.08843897,0.0001492,53.2188,7.9913,59.3066,300.8073,0.0002522,3.728e-05,0.0,0 STARLINK-3702,1 52100U 22029N   22264.67559056  .00003728  00000-0  25220-3 0  9996,2 52100  53.2188   7.9913 0001492  59.3066 300.8073 15.08843897 29680,6917.868,95.437,540.766,538.701,0.0
52100.0,STARLINK-3702,PAYLOAD,2022-09-22 12:52:52,15.0884054,0.000117,53.2192,4.1254,63.0454,297.0658,0.00025241,3.732e-05,0.0,0 STARLINK-3702,1 52100U 22029N   22265.53671460  .00003732  00000-0  25241-3 0  9994,2 52100  53.2192   4.1254 0001170  63.0454 297.0658 15.08840540 29811,6917.879,95.438,540.553,538.934,0.0
52100.0,STARLINK-3702,PAYLOAD,2022-09-22 17:39:01,15.08845487,0.00015,53.2194,3.2337,60.4817,299.6324,0.00028527,4.256e-05,0.0,0 STARLINK-3702,1 52100U 22029N   22265.73543396  .00004256  00000-0  28527-3 0  9994,2 52100  53.2194   3.2337 0001500  60.4817 299.6324 15.08845487 29842,6917.864000000001,95.437,540.766,538.691,0.0
52100.0,STARLINK-3702,PAYLOAD,2022-09-23 12:43:39,15.08843685,0.0001553,53.2202,359.6666,67.2652,292.8505,0.00010562,1.394e-05,0.0,0 STARLINK-3702,1 52100U 22029N   22266.53031387  .00001394  00000-0  10562-3 0  9995,2 52100  53.2202 359.6666 0001553  67.2652 292.8505 15.08843685 29962,6917.869000000002,95.437,540.808,538.66,0.0
52100.0,STARLINK-3702,PAYLOAD,2022-09-23 17:29:48,15.08850606,0.0001388,53.2202,358.7736,61.6893,298.4239,0.00010823,1.435e-05,0.0,0 STARLINK-3702,1 52100U 22029N   22266.72902804  .00001435  00000-0  10823-3 0  9993,2 52100  53.2202 358.7736 0001388  61.6893 298.4239 15.08850606 29991,6917.848000000001,95.437,540.673,538.753,0.0
52100.0,STARLINK-3702,PAYLOAD,2022-09-24 12:34:25,15.08847705,0.0001529,53.2201,355.2062,65.0632,295.0519,0.00012713,1.736e-05,0.0,0 STARLINK-3702,1 52100U 22029N   22267.52390949  .00001736  00000-0  12713-3 0  9997,2 52100  53.2201 355.2062 0001529  65.0632 295.0519 15.08847705 30116,6917.857,95.437,540.78,538.664,0.0
52100.0,STARLINK-3702,PAYLOAD,2022-09-24 17:20:35,15.08837937,0.0001748,53.2197,354.3139,54.2261,305.8894,-1.6887999999999998e-05,-5.57e-06,0.0,0 STARLINK-3702,1 52100U 22029N   22267.72263503 -.00000557  00000-0 -16888-4 0  9994,2 52100  53.2197 354.3139 0001748  54.2261 305.8894 15.08837937 30141,6917.887,95.438,540.961,538.5419999999998,0.0
52100.0,STARLINK-3702,PAYLOAD,2022-09-25 10:49:49,15.08845878,0.0001575999999999,53.2194,351.0429,57.2489,302.8655,0.00016325,2.311e-05,0.0,0 STARLINK-3702,1 52100U 22029N   22268.45126961  .00002311  00000-0  16325-3 0  9994,2 52100  53.2194 351.0429 0001576  57.2489 302.8655 15.08845878 30255,6917.861999999999,95.437,540.818,538.637,0.0
52100.0,STARLINK-3702,PAYLOAD,2022-09-25 15:35:58,15.08850024,0.0001613,53.2194,350.1511,55.1255,304.9888,0.00018293,2.625e-05,0.0,0 STARLINK-3702,1 52100U 22029N   22268.64998730  .00002625  00000-0  18293-3 0  9990,2 52100  53.2194 350.1511 0001613  55.1255 304.9888 15.08850024 30280,6917.85,95.437,540.831,538.599,0.0
52100.0,STARLINK-3702,PAYLOAD,2022-09-26 07:29:50,15.08835616,0.0001705,53.2195,347.1781,55.8564,304.259,-3.1353e-05,-7.87e-06,0.0,0 STARLINK-3702,1 52100U 22029N   22269.31239314 -.00000787  00000-0 -31353-4 0  9993,2 52100  53.2195 347.1781 0001705  55.8564 304.2590 15.08835616 30382,6917.894,95.438,540.938,538.5790000000002,0.0
52100.0,STARLINK-3702,PAYLOAD,2022-09-26 12:16:00,15.08833852,0.0001585999999999,53.2194,346.2855,59.4008,300.714,-2.94e-05,-7.56e-06,0.0,0 STARLINK-3702,1 52100U 22029N   22269.51111538 -.00000756  00000-0 -29400-4 0  9998,2 52100  53.2194 346.2855 0001586  59.4008 300.7140 15.08833852 30419,6917.899,95.438,540.861,538.6669999999998,0.0
